#aV2014 10  3  0  0  0.00000000     288 DD+AD WGS84 FIT  NGA
## 1812 432000.00000000   300.00000000 56933 0.0000000000000
+   31     1  2  4  5  6  7  8  9 10 11 12 13 14 15 16 17 18
+         19 20 21 22 23 24 25 26 27 28 29 30 31 32  0  0  0
+          0  0  0  0  0  0  0  0  0  0  0  0  0  0  0  0  0
+          0  0  0  0  0  0  0  0  0  0  0  0  0  0  0  0  0
+          0  0  0  0  0  0  0  0  0  0  0  0  0  0  0  0  0
++         2  2  2  2  2  2  2  2  2  2  2  2  2  2  2  2  2
++         2  2  2  2  2  2  2  2  2  2  2  2  2  2  0  0  0
++         0  0  0  0  0  0  0  0  0  0  0  0  0  0  0  0  0
++         0  0  0  0  0  0  0  0  0  0  0  0  0  0  0  0  0
++         0  0  0  0  0  0  0  0  0  0  0  0  0  0  0  0  0
%c cc cc ccc ccc cccc cccc cccc cccc ccccc ccccc ccccc ccccc
%c cc cc ccc ccc cccc cccc cccc cccc ccccc ccccc ccccc ccccc
%f  0.0000000  0.000000000  0.00000000000  0.000000000000000
%f  0.0000000  0.000000000  0.00000000000  0.000000000000000
%i    0    0    0    0      0      0      0      0         0
%i    0    0    0    0      0      0      0      0         0
/*      NGA, ST. LOUIS,MO.                                  
/*   EPHEMERIS COMPUTED FROM  1 DAYS OF DATA                
/*   EPOCHA SMOOTHER                                       
/* CCCCCCCCCCCCCCCCCCCCCCCCCCCCCCCCCCCCCCCCCCCCCCCCCCCCCCCCC
*  2014 10  3  0 55  0.00000000
P  1 -13564.037015  22343.003677   4172.864843     22.001769                    
V  1   -360.162500  -6097.708920  31276.746021      0.004871                    
P  2  16692.049052  -1592.249715 -20181.094823    521.917656                    
V  2  -9111.609975  24942.653130  -9839.703887      0.022115                    
P  4 -11428.657407  23759.087925   1121.467706     -1.218190                    
V  4  -2699.765900  -3191.187224  31393.391567     -0.003223                    
P  5  26569.902735  -1718.550875  -1336.452589   -333.547737                    
V  5  -1320.943600   3238.593495 -31278.774549      0.039735                    
P  6  10823.886258  11898.068537 -21152.622852     -2.671905                    
V  6 -11672.711529  24156.945549   7605.461415      0.019711                    
P  7  -5328.270482  24385.713859   8619.537045    398.131424                    
V  7  -7037.698191   8708.455129 -29645.551255      0.040611                    
P  8 -12419.024794  22958.286953   2382.681110     15.716987                    
V  8  -3385.717595   1234.282493 -32767.931825      0.001161                    
P  9   3712.303654  22173.304961 -14126.436091     14.861003                    
V  9 -12248.264711 -13312.329927 -24119.534939     -0.038804                    
P 10  19118.195369  10101.773526 -16055.260532   -144.195152                    
V 10 -19391.901747   3565.757624 -20899.875710     -0.014312                    
P 11 -12325.667753  19310.207603  12781.051700   -525.773229                    
V 11  -2394.631160 -17654.816523  23600.303712     -0.028288                    
P 12  20024.995469 -10295.803353 -13988.337220    236.157203                    
V 12  17728.456326    670.149300  25228.295376      0.026706                    
P 13   4881.243555  23739.802133 -10865.158864    -47.338359                    
V 13  -8475.836447 -10823.899230 -28005.997384     -0.036273                    
P 14 -14628.171654 -22199.982576  -1504.425568    129.150181                    
V 14    968.200324  -3137.166019  31753.043610     -0.036582                    
P 15  12301.035662  -9815.820161  21333.102479   -206.350761                    
V 15  16898.548103  21485.248370    446.948972     -0.022237                    
P 16 -26732.880348    141.577630  -1209.815674   -190.816596                    
V 16   1389.329003  -1654.319635 -32085.094044      0.026268                    
P 17  14827.014926  22174.627900   -524.730469   -128.079127                    
V 17  -1436.711234   2102.046228  31789.456199     -0.026138                    
P 18  -2825.696739 -15968.295709  21510.909452    348.803020                    
V 18  26214.868716  -2854.465427   1033.250420      0.025612                    
P 19 -14798.420479   4116.436728  21542.749266   -481.630193                    
V 19 -13721.559505 -24045.127736  -4358.038822     -0.018386                    
P 20 -14288.879232  15052.539126 -16731.128731    240.777711                    
V 20 -21127.280851   1017.133487  19251.738655      0.043587                    
P 21   -611.123617 -23083.587624  13391.544032   -387.276700                    
V 21   9333.693901 -13572.213590 -24588.096497     -0.020778                    
P 22 -16737.383956 -11458.886535  17444.763273    273.382639                    
V 22  21444.048616  -4454.026191  17705.064468      0.035960                    
P 23  -6122.888411  16116.249273 -19961.521801    -56.875878                    
V 23 -15953.651316 -20307.403913 -11849.676055     -0.028826                    
P 24  15008.922285 -20417.858180   7754.908230    -36.171087                    
V 24  -1370.630273  10223.100911  29609.886899     -0.006410                    
P 25   8179.676252 -14742.551228 -20569.616337     19.687281                    
V 25  25887.055392  -1651.874541  11652.112345     -0.012075                    
P 26  17461.474176   4584.213189  18924.351858    -75.373939                    
V 26  11548.117873  22556.168474 -15317.370287     -0.128883                    
P 27 -19151.125489  -5963.425503  17428.544703     19.199523                    
V 27 -11601.742471 -18908.577081 -19132.890711      0.029662                    
P 28  11733.288669  13181.175810  20502.665922    388.563554                    
V 28 -24545.704372   1338.000606  13474.595591      0.025757                    
P 29  -1699.775211 -21834.758374 -15026.093519    564.213373                    
V 29  11780.699813  15132.997890 -23244.110201      0.024115                    
P 30   2740.123270  20026.446376  17204.408485    -68.570445                    
V 30 -12170.256418  18264.072322 -19370.407835     -0.039118                    
P 31 -11558.985195  -9645.662643 -21699.295519    331.027576                    
V 31  12789.398444 -24805.716241   4489.134782     -0.004071                    
P 32 -24589.157073   5583.199324  -7363.439493   -326.527499                    
V 32  -9588.951765  -3381.484186  29889.236982      0.086850                    
EOF
